start=new Date('2022-08-30T00:00:00.000Z').valueOf();
sats=[{"RCS_SIZE":"LARGE","OBJECT_NAME":"STARLINK-3888","MEAN_ANOMALY":"196.4265","ARG_OF_PERICENTER":"64.1214","ECCENTRICITY":"0.00017530","GP_ID":"211289225","TLE_LINE2":"2 52454  53.2176  90.1504 0001753  64.1214 196.4265 15.08828868  1300","EPHEMERIS_TYPE":"0","CENTER_NAME":"EARTH","MEAN_ELEMENT_THEORY":"SGP4","REF_FRAME":"TEME","ELEMENT_SET_NO":"999","SITE":"AFETR","DECAY_DATE":null,"MEAN_MOTION":"15.08828868","TLE_LINE1":"1 52454U 22049D   22241.91667824  .00010857  00000-0  69937-3 0  9999","INCLINATION":"53.2176","FILE":"3551093","APOAPSIS":"540.992","CLASSIFICATION_TYPE":"U","TIME_SYSTEM":"UTC","PERIOD":"95.438","COUNTRY_CODE":"US","OBJECT_ID":"2022-049D","PERIAPSIS":"538.567","SEMIMAJOR_AXIS":"6917.914","MEAN_MOTION_DOT":"0.00010857","BSTAR":"0.00069937000000","REV_AT_EPOCH":"130","NORAD_CAT_ID":"52454","OBJECT_TYPE":"PAYLOAD","EPOCH":"2022-08-29T22:00:00.999936","LAUNCH_DATE":"2022-05-06","RA_OF_ASC_NODE":"90.1504","MEAN_MOTION_DDOT":"0.0000000000000"},{"INCLINATION":"53.2171","FILE":"3551093","EPHEMERIS_TYPE":"0","CENTER_NAME":"EARTH","ELEMENT_SET_NO":"999","REF_FRAME":"TEME","MEAN_ELEMENT_THEORY":"SGP4","SITE":"AFETR","TLE_LINE1":"1 52455U 22049E   22241.91667824  .00011541  00000-0  74242-3 0  9996","MEAN_MOTION":"15.08820042","DECAY_DATE":null,"GP_ID":"211289785","ECCENTRICITY":"0.00016410","TLE_LINE2":"2 52455  53.2171  90.1479 0001641  67.9240 227.3986 15.08820042  1303","RCS_SIZE":"LARGE","ARG_OF_PERICENTER":"67.9240","MEAN_ANOMALY":"227.3986","OBJECT_NAME":"STARLINK-3890","OBJECT_TYPE":"PAYLOAD","NORAD_CAT_ID":"52455","LAUNCH_DATE":"2022-05-06","EPOCH":"2022-08-29T22:00:00.999936","RA_OF_ASC_NODE":"90.1479","MEAN_MOTION_DDOT":"0.0000000000000","OBJECT_ID":"2022-049E","SEMIMAJOR_AXIS":"6917.941","PERIAPSIS":"538.671","BSTAR":"0.00074242000000","REV_AT_EPOCH":"130","MEAN_MOTION_DOT":"0.00011541","TIME_SYSTEM":"UTC","PERIOD":"95.439","COUNTRY_CODE":"US","APOAPSIS":"540.942","CLASSIFICATION_TYPE":"U"},{"NORAD_CAT_ID":"52456","OBJECT_TYPE":"PAYLOAD","RA_OF_ASC_NODE":"90.1505","LAUNCH_DATE":"2022-05-06","EPOCH":"2022-08-29T22:00:00.999936","MEAN_MOTION_DDOT":"0.0000000000000","OBJECT_ID":"2022-049F","PERIAPSIS":"538.478","SEMIMAJOR_AXIS":"6917.934","MEAN_MOTION_DOT":"0.00011145","REV_AT_EPOCH":"130","BSTAR":"0.00071757000000","TIME_SYSTEM":"UTC","PERIOD":"95.439","COUNTRY_CODE":"US","APOAPSIS":"541.120","CLASSIFICATION_TYPE":"U","INCLINATION":"53.2179","FILE":"3551093","EPHEMERIS_TYPE":"0","CENTER_NAME":"EARTH","MEAN_ELEMENT_THEORY":"SGP4","REF_FRAME":"TEME","ELEMENT_SET_NO":"999","SITE":"AFETR","DECAY_DATE":null,"MEAN_MOTION":"15.08822443","TLE_LINE1":"1 52456U 22049F   22241.91667824  .00011145  00000-0  71757-3 0  9995","ECCENTRICITY":"0.00019090","GP_ID":"211290074","TLE_LINE2":"2 52456  53.2179  90.1505 0001909  64.0220 251.3153 15.08822443  1305","RCS_SIZE":"MEDIUM","OBJECT_NAME":"STARLINK-3896","ARG_OF_PERICENTER":"64.0220","MEAN_ANOMALY":"251.3153"},{"APOAPSIS":"540.910","CLASSIFICATION_TYPE":"U","TIME_SYSTEM":"UTC","COUNTRY_CODE":"US","PERIOD":"95.438","OBJECT_ID":"2022-049G","BSTAR":"0.00065662000000","REV_AT_EPOCH":"130","MEAN_MOTION_DOT":"0.00010175","SEMIMAJOR_AXIS":"6917.906","PERIAPSIS":"538.632","OBJECT_TYPE":"PAYLOAD","NORAD_CAT_ID":"52457","MEAN_MOTION_DDOT":"0.0000000000000","EPOCH":"2022-08-29T22:00:00.999936","LAUNCH_DATE":"2022-05-06","RA_OF_ASC_NODE":"90.1486","RCS_SIZE":"LARGE","MEAN_ANOMALY":"258.8194","ARG_OF_PERICENTER":"76.5365","OBJECT_NAME":"STARLINK-3899","TLE_LINE2":"2 52457  53.2170  90.1486 0001646  76.5365 258.8194 15.08831640  1307","ECCENTRICITY":"0.00016460","GP_ID":"211289513","ELEMENT_SET_NO":"999","REF_FRAME":"TEME","MEAN_ELEMENT_THEORY":"SGP4","CENTER_NAME":"EARTH","EPHEMERIS_TYPE":"0","TLE_LINE1":"1 52457U 22049G   22241.91667824  .00010175  00000-0  65662-3 0  9996","MEAN_MOTION":"15.08831640","DECAY_DATE":null,"SITE":"AFETR","FILE":"3551093","INCLINATION":"53.2170"},{"MEAN_MOTION_DOT":"-0.00001917","BSTAR":"-0.00010238000000","REV_AT_EPOCH":"130","PERIAPSIS":"538.375","SEMIMAJOR_AXIS":"6917.875","OBJECT_ID":"2022-049H","MEAN_MOTION_DDOT":"0.0000000000000","LAUNCH_DATE":"2022-05-06","EPOCH":"2022-08-29T22:00:00.999936","RA_OF_ASC_NODE":"90.1475","OBJECT_TYPE":"PAYLOAD","NORAD_CAT_ID":"52458","CLASSIFICATION_TYPE":"U","APOAPSIS":"541.106","COUNTRY_CODE":"US","PERIOD":"95.437","TIME_SYSTEM":"UTC","DECAY_DATE":null,"MEAN_MOTION":"15.08841668","TLE_LINE1":"1 52458U 22049H   22241.91667824 -.00001917  00000-0 -10238-3 0  9992","SITE":"AFETR","MEAN_ELEMENT_THEORY":"SGP4","REF_FRAME":"TEME","ELEMENT_SET_NO":"999","EPHEMERIS_TYPE":"0","CENTER_NAME":"EARTH","FILE":"3551093","INCLINATION":"53.2163","OBJECT_NAME":"STARLINK-3898","ARG_OF_PERICENTER":"55.6462","MEAN_ANOMALY":"299.7028","RCS_SIZE":"LARGE","TLE_LINE2":"2 52458  53.2163  90.1475 0001974  55.6462 299.7028 15.08841668  1309","ECCENTRICITY":"0.00019740","GP_ID":"211289642"},{"MEAN_MOTION_DDOT":"0.0000000000000","EPOCH":"2022-08-29T22:00:00.999936","LAUNCH_DATE":"2022-05-06","RA_OF_ASC_NODE":"80.1600","NORAD_CAT_ID":"52459","OBJECT_TYPE":"PAYLOAD","MEAN_MOTION_DOT":"0.00019180","BSTAR":"0.00122040000000","REV_AT_EPOCH":"130","PERIAPSIS":"538.270","SEMIMAJOR_AXIS":"6917.927","OBJECT_ID":"2022-049J","COUNTRY_CODE":"US","PERIOD":"95.439","TIME_SYSTEM":"UTC","CLASSIFICATION_TYPE":"U","APOAPSIS":"541.314","FILE":"3551093","INCLINATION":"53.2137","MEAN_MOTION":"15.08824608","DECAY_DATE":null,"TLE_LINE1":"1 52459U 22049J   22241.91667824  .00019180  00000-0  12204-2 0  9996","SITE":"AFETR","REF_FRAME":"TEME","MEAN_ELEMENT_THEORY":"SGP4","ELEMENT_SET_NO":"999","EPHEMERIS_TYPE":"0","CENTER_NAME":"EARTH","TLE_LINE2":"2 52459  53.2137  80.1600 0002200  64.3253  11.2179 15.08824608  1307","ECCENTRICITY":"0.00022000","GP_ID":"211289370","OBJECT_NAME":"STARLINK-3856","ARG_OF_PERICENTER":"64.3253","MEAN_ANOMALY":"11.2179","RCS_SIZE":"LARGE"},{"NORAD_CAT_ID":"52460","OBJECT_TYPE":"PAYLOAD","MEAN_MOTION_DDOT":"0.0000000000000","EPOCH":"2022-08-29T22:00:00.999936","LAUNCH_DATE":"2022-05-06","RA_OF_ASC_NODE":"80.1606","OBJECT_ID":"2022-049K","MEAN_MOTION_DOT":"0.00019360","REV_AT_EPOCH":"130","BSTAR":"0.00123160000000","PERIAPSIS":"538.661","SEMIMAJOR_AXIS":"6917.922","TIME_SYSTEM":"UTC","COUNTRY_CODE":"US","PERIOD":"95.438","APOAPSIS":"540.913","CLASSIFICATION_TYPE":"U","FILE":"3551093","INCLINATION":"53.2147","REF_FRAME":"TEME","MEAN_ELEMENT_THEORY":"SGP4","ELEMENT_SET_NO":"999","EPHEMERIS_TYPE":"0","CENTER_NAME":"EARTH","DECAY_DATE":null,"MEAN_MOTION":"15.08826384","TLE_LINE1":"1 52460U 22049K   22241.91667824  .00019360  00000-0  12316-2 0  9992","SITE":"AFETR","TLE_LINE2":"2 52460  53.2147  80.1606 0001628  68.0507  22.3019 15.08826384  1301","GP_ID":"211290232","ECCENTRICITY":"0.00016280","RCS_SIZE":"LARGE","OBJECT_NAME":"STARLINK-3865","MEAN_ANOMALY":"22.3019","ARG_OF_PERICENTER":"68.0507"},{"EPHEMERIS_TYPE":"0","CENTER_NAME":"EARTH","REF_FRAME":"TEME","MEAN_ELEMENT_THEORY":"SGP4","ELEMENT_SET_NO":"999","SITE":"AFETR","MEAN_MOTION":"15.08816750","DECAY_DATE":null,"TLE_LINE1":"1 52461U 22049L   22241.91667824  .00029397  00000-0  18586-2 0  9999","INCLINATION":"53.2139","FILE":"3551093","RCS_SIZE":"MEDIUM","OBJECT_NAME":"STARLINK-3900","MEAN_ANOMALY":"33.2435","ARG_OF_PERICENTER":"57.2871","ECCENTRICITY":"0.00019830","GP_ID":"211289930","TLE_LINE2":"2 52461  53.2139  70.1579 0001983  57.2871  33.2435 15.08816750  1308","OBJECT_ID":"2022-049L","PERIAPSIS":"538.445","SEMIMAJOR_AXIS":"6917.951","MEAN_MOTION_DOT":"0.00029397","BSTAR":"0.00185860000000","REV_AT_EPOCH":"130","NORAD_CAT_ID":"52461","OBJECT_TYPE":"PAYLOAD","EPOCH":"2022-08-29T22:00:00.999936","LAUNCH_DATE":"2022-05-06","RA_OF_ASC_NODE":"70.1579","MEAN_MOTION_DDOT":"0.0000000000000","APOAPSIS":"541.188","CLASSIFICATION_TYPE":"U","TIME_SYSTEM":"UTC","PERIOD":"95.439","COUNTRY_CODE":"US"},{"COUNTRY_CODE":"US","PERIOD":"95.439","TIME_SYSTEM":"UTC","CLASSIFICATION_TYPE":"U","APOAPSIS":"541.106","MEAN_MOTION_DDOT":"0.0000000000000","LAUNCH_DATE":"2022-05-06","RA_OF_ASC_NODE":"80.1548","EPOCH":"2022-08-29T22:00:00.999936","NORAD_CAT_ID":"52462","OBJECT_TYPE":"PAYLOAD","MEAN_MOTION_DOT":"0.00020657","REV_AT_EPOCH":"130","BSTAR":"0.00131300000000","PERIAPSIS":"538.521","SEMIMAJOR_AXIS":"6917.949","OBJECT_ID":"2022-049M","TLE_LINE2":"2 52462  53.2151  80.1548 0001868  62.9578  52.5875 15.08817640  1300","ECCENTRICITY":"0.00018680","GP_ID":"211289226","OBJECT_NAME":"STARLINK-3903","ARG_OF_PERICENTER":"62.9578","MEAN_ANOMALY":"52.5875","RCS_SIZE":"LARGE","FILE":"3551093","INCLINATION":"53.2151","MEAN_MOTION":"15.08817640","DECAY_DATE":null,"TLE_LINE1":"1 52462U 22049M   22241.91667824  .00020657  00000-0  13130-2 0  9990","SITE":"AFETR","MEAN_ELEMENT_THEORY":"SGP4","REF_FRAME":"TEME","ELEMENT_SET_NO":"999","EPHEMERIS_TYPE":"0","CENTER_NAME":"EARTH"},{"TLE_LINE2":"2 52463  53.2137  70.1577 0001603  58.5186  52.0283 15.08803934  1308","GP_ID":"211289786","ECCENTRICITY":"0.00016030","RCS_SIZE":"MEDIUM","MEAN_ANOMALY":"52.0283","ARG_OF_PERICENTER":"58.5186","OBJECT_NAME":"STARLINK-3885","FILE":"3551093","INCLINATION":"53.2137","ELEMENT_SET_NO":"999","MEAN_ELEMENT_THEORY":"SGP4","REF_FRAME":"TEME","EPHEMERIS_TYPE":"0","CENTER_NAME":"EARTH","TLE_LINE1":"1 52463U 22049N   22241.91667824  .00029551  00000-0  18689-2 0  9997","MEAN_MOTION":"15.08803934","DECAY_DATE":null,"SITE":"AFETR","TIME_SYSTEM":"UTC","COUNTRY_CODE":"US","PERIOD":"95.440","APOAPSIS":"540.965","CLASSIFICATION_TYPE":"U","OBJECT_TYPE":"PAYLOAD","NORAD_CAT_ID":"52463","MEAN_MOTION_DDOT":"0.0000000000000","EPOCH":"2022-08-29T22:00:00.999936","LAUNCH_DATE":"2022-05-06","RA_OF_ASC_NODE":"70.1577","OBJECT_ID":"2022-049N","REV_AT_EPOCH":"130","BSTAR":"0.00186890000000","MEAN_MOTION_DOT":"0.00029551","SEMIMAJOR_AXIS":"6917.991","PERIAPSIS":"538.747"}];
